{"type": "FeatureCollection", "features": [ {"type": "Feature", "properties": {"norad_id": 39634, "name": "SENTINEL-1A", "group": "resource", "lat": 49.44288221797498, "lon": -11.627792763865893, "alt_km": 690.5053747758275, "timestamp": "2025-12-18T21:31:50.639139+00:00", "meta": {"OBJECT_NAME": "SENTINEL-1A", "OBJECT_ID": "2014-016A", "EPOCH": "2025-12-18T06:29:25.419840", "MEAN_MOTION": 14.59201636, "ECCENTRICITY": 0.00012325, "INCLINATION": 98.18, "RA_OF_ASC_NODE": 357.4308, "ARG_OF_PERICENTER": 82.3455, "MEAN_ANOMALY": 277.7885, "EPHEMERIS_TYPE": 0, "CLASSIFICATION_TYPE": "U", "NORAD_CAT_ID": 39634, "ELEMENT_SET_NO": 999, "REV_AT_EPOCH": 62363, "BSTAR": 4.9298189e-05, "MEAN_MOTION_DOT": 1.87e-06, "MEAN_MOTION_DDOT": 0}, "tle": {"line1": "1 39634U 14016A   25352.27043310  .00000187  00000+0  49298-4 0  9995", "line2": "2 39634  98.1800 357.4308 0001232  82.3455 277.7885 14.59201636623639"}}, "geometry": {"type": "Point", "coordinates": [-11.627792763865893, 49.44288221797498]}}, {"type": "Feature", "properties": {"norad_id": 39731, "name": "KAZEOSAT 1", "group": "resource", "lat": 5.30365766235323, "lon": 63.88601508981741, "alt_km": 753.9287843275524, "timestamp": "2025-12-18T21:31:50.639149+00:00", "meta": {"OBJECT_NAME": "KAZEOSAT 1", "OBJECT_ID": "2014-024A", "EPOCH": "2025-12-18T06:31:07.387392", "MEAN_MOTION": 14.42065558, "ECCENTRICITY": 0.00011357, "INCLINATION": 98.3433, "RA_OF_ASC_NODE": 64.0552, "ARG_OF_PERICENTER": 98.0218, "MEAN_ANOMALY": 262.11, "EPHEMERIS_TYPE": 0, "CLASSIFICATION_TYPE": "U", "NORAD_CAT_ID": 39731, "ELEMENT_SET_NO": 999, "REV_AT_EPOCH": 61248, "BSTAR": 5.4020519e-05, "MEAN_MOTION_DOT": 1.35e-06, "MEAN_MOTION_DDOT": 0}, "tle": {"line1": "1 39731U 14024A   25352.27161328  .00000135  00000+0  54021-4 0  9995", "line2": "2 39731  98.3433  64.0552 0001135  98.0218 262.1100 14.42065558612488"}}, "geometry": {"type": "Point", "coordinates": [63.88601508981741, 5.30365766235323]}}, {"type": "Feature", "properties": {"norad_id": 39766, "name": "ALOS-2", "group": "resource", "lat": -2.751322089768394, "lon": 88.03904719577012, "alt_km": 634.4983575901979, "timestamp": "2025-12-18T21:31:50.639159+00:00", "meta": {"OBJECT_NAME": "ALOS-2", "OBJECT_ID": "2014-029A", "EPOCH": "2025-12-18T06:56:04.573248", "MEAN_MOTION": 14.7947494, "ECCENTRICITY": 0.00013375, "INCLINATION": 97.9226, "RA_OF_ASC_NODE": 87.0562, "ARG_OF_PERICENTER": 98.5093, "MEAN_ANOMALY": 261.627, "EPHEMERIS_TYPE": 0, "CLASSIFICATION_TYPE": "U", "NORAD_CAT_ID": 39766, "ELEMENT_SET_NO": 999, "REV_AT_EPOCH": 62483, "BSTAR": 0.00018700556, "MEAN_MOTION_DOT": 1.345e-05, "MEAN_MOTION_DDOT": 0}, "tle": {"line1": "1 39766U 14029A   25352.28894182  .00001345  00000+0  18701-3 0  9998", "line2": "2 39766  97.9226  87.0562 0001337  98.5093 261.6270 14.79474940624830"}}, "geometry": {"type": "Point", "coordinates": [88.03904719577012, -2.751322089768394]}}, {"type": "Feature", "properties": {"norad_id": 40010, "name": "KAZEOSAT 2", "group": "resource", "lat": 33.126249741320905, "lon": -168.07221468144905, "alt_km": 615.9847485856199, "timestamp": "2025-12-18T21:31:50.639169+00:00", "meta": {"OBJECT_NAME": "KAZEOSAT 2", "OBJECT_ID": "2014-033A", "EPOCH": "2025-12-18T06:49:39.567072", "MEAN_MOTION": 14.85178715, "ECCENTRICITY": 0.00080705, "INCLINATION": 97.5503, "RA_OF_ASC_NODE": 196.3122, "ARG_OF_PERICENTER": 186.9339, "MEAN_ANOMALY": 173.1767, "EPHEMERIS_TYPE": 0, "CLASSIFICATION_TYPE": "U", "NORAD_CAT_ID": 40010, "ELEMENT_SET_NO": 999, "REV_AT_EPOCH": 62210, "BSTAR": 0.00010624767, "MEAN_MOTION_DOT": 8.6e-06, "MEAN_MOTION_DDOT": 0}, "tle": {"line1": "1 40010U 14033A   25352.28448573  .00000860  00000+0  10625-3 0  9994", "line2": "2 40010  97.5503 196.3122 0008070 186.9339 173.1767 14.85178715622104"}}, "geometry": {"type": "Point", "coordinates": [-168.07221468144905, 33.126249741320905]}}, {"type": "Feature", "properties": {"norad_id": 40011, "name": "HODOYOSHI-4", "group": "resource", "lat": 7.160767291767737, "lon": 2.4302342799455277, "alt_km": 591.4702355243599, "timestamp": "2025-12-18T21:31:50.639180+00:00", "meta": {"OBJECT_NAME": "HODOYOSHI-4", "OBJECT_ID": "2014-033B", "EPOCH": "2025-12-18T07:50:28.443840", "MEAN_MOTION": 14.87498933, "ECCENTRICITY": 0.00235858, "INCLINATION": 97.5409, "RA_OF_ASC_NODE": 180.9346, "ARG_OF_PERICENTER": 181.8801, "MEAN_ANOMALY": 178.2331, "EPHEMERIS_TYPE": 0, "CLASSIFICATION_TYPE": "U", "NORAD_CAT_ID": 40011, "ELEMENT_SET_NO": 999, "REV_AT_EPOCH": 62191, "BSTAR": 8.827055e-05, "MEAN_MOTION_DOT": 7.52e-06, "MEAN_MOTION_DDOT": 0}, "tle": {"line1": "1 40011U 14033B   25352.32671810  .00000752  00000+0  88271-4 0  9995", "line2": "2 40011  97.5409 180.9346 0023585 181.8801 178.2331 14.87498933621913"}}, "geometry": {"type": "Point", "coordinates": [2.4302342799455277, 7.160767291767737]}}, {"type": "Feature", "properties": {"norad_id": 40013, "name": "DEIMOS-2", "group": "resource", "lat": 82.23715996282691, "lon": 127.09789448207441, "alt_km": 580.2942228255388, "timestamp": "2025-12-18T21:31:50.639191+00:00", "meta": {"OBJECT_NAME": "DEIMOS-2", "OBJECT_ID": "2014-033D", "EPOCH": "2025-12-18T06:38:45.061152", "MEAN_MOTION": 14.92996045, "ECCENTRICITY": 0.00012331, "INCLINATION": 97.6065, "RA_OF_ASC_NODE": 227.8938, "ARG_OF_PERICENTER": 107.6613, "MEAN_ANOMALY": 252.4741, "EPHEMERIS_TYPE": 0, "CLASSIFICATION_TYPE": "U", "NORAD_CAT_ID": 40013, "ELEMENT_SET_NO": 999, "REV_AT_EPOCH": 61072, "BSTAR": 0.00020672439, "MEAN_MOTION_DOT": 2.094e-05, "MEAN_MOTION_DDOT": 0}, "tle": {"line1": "1 40013U 14033D   25352.27691043  .00002094  00000+0  20672-3 0  9992", "line2": "2 40013  97.6065 227.8938 0001233 107.6613 252.4741 14.92996045610725"}}, "geometry": {"type": "Point", "coordinates": [127.09789448207441, 82.23715996282691]}}, {"type": "Feature", "properties": {"norad_id": 40015, "name": "HODOYOSHI-3", "group": "resource", "lat": 38.45935752131091, "lon": 152.3601141692519, "alt_km": 633.5338790468722, "timestamp": "2025-12-18T21:31:50.639201+00:00", "meta": {"OBJECT_NAME": "HODOYOSHI-3", "OBJECT_ID": "2014-033F", "EPOCH": "2025-12-18T06:47:56.868576", "MEAN_MOTION": 14.84825443, "ECCENTRICITY": 0.00321157, "INCLINATION": 97.6203, "RA_OF_ASC_NODE": 157.8774, "ARG_OF_PERICENTER": 229.0096, "MEAN_ANOMALY": 130.8341, "EPHEMERIS_TYPE": 0, "CLASSIFICATION_TYPE": "U", "NORAD_CAT_ID": 40015, "ELEMENT_SET_NO": 999, "REV_AT_EPOCH": 62077, "BSTAR": 0.0001625395, "MEAN_MOTION_DOT": 1.34e-05, "MEAN_MOTION_DDOT": 0}, "tle": {"line1": "1 40015U 14033F   25352.28329709  .00001340  00000+0  16254-3 0  9996", "line2": "2 40015  97.6203 157.8774 0032115 229.0096 130.8341 14.84825443620773"}}, "geometry": {"type": "Point", "coordinates": [152.3601141692519, 38.45935752131091]}}, {"type": "Feature", "properties": {"norad_id": 40053, "name": "SPOT 7", "group": "resource", "lat": -50.51827298238992, "lon": 64.77415944645237, "alt_km": 698.4466079056683, "timestamp": "2025-12-18T21:31:50.639212+00:00", "meta": {"OBJECT_NAME": "SPOT 7", "OBJECT_ID": "2014-034A", "EPOCH": "2025-12-18T06:58:08.505408", "MEAN_MOTION": 14.60741012, "ECCENTRICITY": 0.00015404, "INCLINATION": 98.0906, "RA_OF_ASC_NODE": 54.2382, "ARG_OF_PERICENTER": 84.5149, "MEAN_ANOMALY": 275.6228, "EPHEMERIS_TYPE": 0, "CLASSIFICATION_TYPE": "U", "NORAD_CAT_ID": 40053, "ELEMENT_SET_NO": 999, "REV_AT_EPOCH": 61072, "BSTAR": 0.00010524272, "MEAN_MOTION_DOT": 4.68e-06, "MEAN_MOTION_DDOT": 0}, "tle": {"line1": "1 40053U 14034A   25352.29037622  .00000468  00000+0  10524-3 0  9994", "line2": "2 40053  98.0906  54.2382 0001540  84.5149 275.6228 14.60741012610725"}}, "geometry": {"type": "Point", "coordinates": [64.77415944645237, -50.51827298238992]}}, {"type": "Feature", "properties": {"norad_id": 40072, "name": "SKYSAT-B", "group": "resource", "lat": 65.7458119632119, "lon": 135.9820573453604, "alt_km": 595.5370197748516, "timestamp": "2025-12-18T21:31:50.639222+00:00", "meta": {"OBJECT_NAME": "SKYSAT-B", "OBJECT_ID": "2014-037D", "EPOCH": "2025-12-18T03:15:54.016704", "MEAN_MOTION": 14.87346234, "ECCENTRICITY": 0.00064796, "INCLINATION": 98.3618, "RA_OF_ASC_NODE": 296.1271, "ARG_OF_PERICENTER": 134.7787, "MEAN_ANOMALY": 225.3956, "EPHEMERIS_TYPE": 0, "CLASSIFICATION_TYPE": "U", "NORAD_CAT_ID": 40072, "ELEMENT_SET_NO": 999, "REV_AT_EPOCH": 61904, "BSTAR": 0.00016057467, "MEAN_MOTION_DOT": 1.39e-05, "MEAN_MOTION_DDOT": 0}, "tle": {"line1": "1 40072U 14037D   25352.13604186  .00001390  00000+0  16057-3 0  9998", "line2": "2 40072  98.3618 296.1271 0006479 134.7787 225.3956 14.87346234619045"}}, "geometry": {"type": "Point", "coordinates": [135.9820573453604, 65.7458119632119]}}, {"type": "Feature", "properties": {"norad_id": 40115, "name": "WORLDVIEW-3 (WV-3)", "group": "resource", "lat": -39.688680764830494, "lon": 71.6982042273161, "alt_km": 622.3513621932043, "timestamp": "2025-12-18T21:31:50.639232+00:00", "meta": {"OBJECT_NAME": "WORLDVIEW-3 (WV-3)", "OBJECT_ID": "2014-048A", "EPOCH": "2025-12-18T05:32:09.806784", "MEAN_MOTION": 14.84660813, "ECCENTRICITY": 0.00016864, "INCLINATION": 97.8774, "RA_OF_ASC_NODE": 64.4419, "ARG_OF_PERICENTER": 140.5848, "MEAN_ANOMALY": 219.5489, "EPHEMERIS_TYPE": 0, "CLASSIFICATION_TYPE": "U", "NORAD_CAT_ID": 40115, "ELEMENT_SET_NO": 999, "REV_AT_EPOCH": 61505, "BSTAR": 0.00011059022, "MEAN_MOTION_DOT": 8.82e-06, "MEAN_MOTION_DDOT": 0}, "tle": {"line1": "1 40115U 14048A   25352.23066906  .00000882  00000+0  11059-3 0  9993", "line2": "2 40115  97.8774  64.4419 0001686 140.5848 219.5489 14.84660813615050"}}, "geometry": {"type": "Point", "coordinates": [71.6982042273161, -39.688680764830494]}}]}